IONOSFERA-M 2           
1 61736U 24199B   26185.59853089  .00000093  00000+0  61336-4 0  9991
2 61736  98.7149  58.4956 0000357  59.9165 300.2048 14.22761127133300
PRSC-EO1                
1 62725U 25012A   26185.46606981  .00010327  00000+0  51545-3 0  9999
2 62725  97.4216 257.5881 0005991 182.7360 177.3842 15.17673835 80815
BIOMASS                 
1 63772U 25090A   26184.94542089  .00001237  00000+0  22742-3 0  9995
2 63772  98.0747  12.0140 0001428  85.8920 274.2447 14.67363795 63142
GOSAT-GW (IBUKI GW)     
1 64694U 25141A   26185.57641917  .00001020  00000+0  18819-3 0  9996
2 64694  98.0567 122.6109 0001445  85.2618 274.8752 14.67559273 54396
IONOSFERA-M 3           
1 64876U 25155A   26185.63182306  .00000088  00000+0  59717-4 0  9998
2 64876  98.6034 147.0984 0001916 128.3379 231.7971 14.21489596 48883
IONOSFERA-M 4           
1 64877U 25155B   26185.59624657  .00000093  00000+0  62014-4 0  9994
2 64877  98.6039 146.9809 0001614 109.8998 250.2353 14.21491999 48878
MICROCARB               
1 64899U 25156A   26185.47702116  .00000666  00000+0  11159-3 0  9992
2 64899  98.0073 262.3300 0016806 205.3286 154.7100 14.72876258 50517
CO3D 3                  
1 64900U 25156B   26185.63067312  .00007596  00000+0  35350-3 0  9993
2 64900  97.4328 264.0730 0001861 107.8356 252.3082 15.20217635 52182
CO3D 4                  
1 64901U 25156C   26185.63081994  .00002324  00000+0  11041-3 0  9991
2 64901  97.4330 264.0732 0000998 173.5402 186.5846 15.20209957 52184
CO3D 2                  
1 64902U 25156D   26185.46583673  .00005203  00000+0  24332-3 0  9990
2 64902  97.4333 263.8089 0001386  94.0340 266.1054 15.20201533 52155
CO3D 1                  
1 64903U 25156E   26185.46599053  .00005125  00000+0  23970-3 0  9990
2 64903  97.4331 263.8083 0001184 112.9737 247.1623 15.20202252 52154
PRSC-S1                 
1 65055U 25164A   26185.50048581  .00004070  00000+0  28175-3 0  9998
2 65055  41.1288 190.2936 0005147 119.4008 240.7320 15.06578729 51045
SENTINEL-6B             
1 66514U 25264A   26185.49676550 -.00000037  00000+0  10448-3 0  9995
2 66514  66.0414  99.2276 0007913 268.9422  91.0687 12.80930036 29388
CAS500-3                
1 66655U 25274F   26185.56066281  .00001912  00000+0  21226-3 0  9992
2 66655  97.7441 113.2166 0006814  65.8712 294.3217 14.88367258 32735
CSG-3                   
1 67304U 26001A   26185.48171212  .00000625  00000+0  85031-4 0  9990
2 67304  97.8892   8.8335 0001485  93.7838 266.3545 14.82147344 27028
PRSC-E03                
1 68835U 26092A   26185.61816639  .00004309  00000+0  29111-3 0  9993
2 68835  38.0022 346.8877 0003647 181.0109 179.0646 15.06769164 10582
CAS500-2                
1 69013U 26100AK  26185.45804681  .00009144  00000+0  41725-3 0  9995
2 69013  97.3880  82.9905 0008716 335.8740  24.2086 15.20803068  9432
