OBJECT_NAME,OBJECT_ID,EPOCH,MEAN_MOTION,ECCENTRICITY,INCLINATION,RA_OF_ASC_NODE,ARG_OF_PERICENTER,MEAN_ANOMALY,EPHEMERIS_TYPE,CLASSIFICATION_TYPE,NORAD_CAT_ID,ELEMENT_SET_NO,REV_AT_EPOCH,BSTAR,MEAN_MOTION_DOT,MEAN_MOTION_DDOT
IONOSFERA-M 2,2024-199B,2026-07-04T14:21:53.068896,14.22761127,.00003576,98.7149,58.4956,59.9165,300.2048,0,U,61736,999,13330,.61335716E-4,.93E-6,0
PRSC-EO1,2025-012A,2026-07-04T11:11:08.431584,15.17673835,.00059916,97.4216,257.5881,182.7360,177.3842,0,U,62725,999,8081,.51544682E-3,.10327E-3,0
BIOMASS,2025-090A,2026-07-03T22:41:24.364896,14.67363795,.00014283,98.0747,12.0140,85.8920,274.2447,0,U,63772,999,6314,.22742015E-3,.1237E-4,0
GOSAT-GW (IBUKI GW),2025-141A,2026-07-04T13:50:02.616288,14.67559273,.00014453,98.0567,122.6109,85.2618,274.8752,0,U,64694,999,5439,.18819454E-3,.102E-4,0
IONOSFERA-M 3,2025-155A,2026-07-04T15:09:49.512384,14.21489596,.00019161,98.6034,147.0984,128.3379,231.7971,0,U,64876,999,4888,.59717357E-4,.88E-6,0
IONOSFERA-M 4,2025-155B,2026-07-04T14:18:35.703648,14.21491999,.00016146,98.6039,146.9809,109.8998,250.2353,0,U,64877,999,4887,.62013537E-4,.93E-6,0
MICROCARB,2025-156A,2026-07-04T11:26:54.628224,14.72876258,.00168062,98.0073,262.3300,205.3286,154.7100,0,U,64899,999,5051,.11158957E-3,.666E-5,0
CO3D 3,2025-156B,2026-07-04T15:08:10.157568,15.20217635,.0001861,97.4328,264.0730,107.8356,252.3082,0,U,64900,999,5218,.35350371E-3,.7596E-4,0
CO3D 4,2025-156C,2026-07-04T15:08:22.842816,15.20209957,.00009985,97.4330,264.0732,173.5402,186.5846,0,U,64901,999,5218,.11040856E-3,.2324E-4,0
CO3D 2,2025-156D,2026-07-04T11:10:48.293472,15.20201533,.00013865,97.4333,263.8089,94.0340,266.1054,0,U,64902,999,5215,.24332082E-3,.5203E-4,0
CO3D 1,2025-156E,2026-07-04T11:11:01.581792,15.20202252,.00011844,97.4331,263.8083,112.9737,247.1623,0,U,64903,999,5215,.23970427E-3,.5125E-4,0
PRSC-S1,2025-164A,2026-07-04T12:00:41.973984,15.06578729,.00051473,41.1288,190.2936,119.4008,240.7320,0,U,65055,999,5104,.2817506E-3,.407E-4,0
SENTINEL-6B,2025-264A,2026-07-04T11:55:20.539200,12.80930036,.00079133,66.0414,99.2276,268.9422,91.0687,0,U,66514,999,2938,.10447862E-3,-.37E-6,0
CAS500-3,2025-274F,2026-07-04T13:27:21.266784,14.88367258,.00068144,97.7441,113.2166,65.8712,294.3217,0,U,66655,999,3273,.21226084E-3,.1912E-4,0
CSG-3,2026-001A,2026-07-04T11:33:39.927168,14.82147344,.00014854,97.8892,8.8335,93.7838,266.3545,0,U,67304,999,2702,.85030535E-4,.625E-5,0
PRSC-E03,2026-092A,2026-07-04T14:50:09.576096,15.06769164,.00036472,38.0022,346.8877,181.0109,179.0646,0,U,68835,999,1058,.29111194E-3,.4309E-4,0
CAS500-2,2026-100AK,2026-07-04T10:59:35.244384,15.20803068,.00087162,97.3880,82.9905,335.8740,24.2086,0,U,69013,999,943,.41725102E-3,.9144E-4,0
